TIANMU-1 08             
1 57400U 23101B   26066.00237819  .00000346  00000+0  14775-4 0  9993
2 57400  97.2717 118.7901 0006380 134.2174 225.9592 15.29204229146020
STARLINK-33936          
1 64005U 25101M   26068.14697958  .00039271  00000+0  14286-2 0  9999
2 64005  43.0037   0.9080 0001447 286.5421  73.5271 15.27589114 46979
